[{"OBJECT_NAME":"UNKNOWN","OBJECT_ID":"","EPOCH":"2026-03-06T13:06:17.053344","MEAN_MOTION":13.31539553,"ECCENTRICITY":0.0246746,"INCLINATION":67.2921,"RA_OF_ASC_NODE":99.6646,"ARG_OF_PERICENTER":22.3697,"MEAN_ANOMALY":129.5716,"EPHEMERIS_TYPE":0,"CLASSIFICATION_TYPE":"U","NORAD_CAT_ID":81599,"ELEMENT_SET_NO":999,"REV_AT_EPOCH":59623,"BSTAR":0.00016183,"MEAN_MOTION_DOT":3.0e-7,"MEAN_MOTION_DDOT":0},{"OBJECT_NAME":"UNKNOWN","OBJECT_ID":"","EPOCH":"2026-03-06T03:14:31.265376","MEAN_MOTION":12.81426946,"ECCENTRICITY":0.0149171,"INCLINATION":56.4354,"RA_OF_ASC_NODE":337.3034,"ARG_OF_PERICENTER":254.5569,"MEAN_ANOMALY":103.8838,"EPHEMERIS_TYPE":0,"CLASSIFICATION_TYPE":"U","NORAD_CAT_ID":81605,"ELEMENT_SET_NO":999,"REV_AT_EPOCH":19689,"BSTAR":-0.006199,"MEAN_MOTION_DOT":-1.613e-5,"MEAN_MOTION_DDOT":0},{"OBJECT_NAME":"UNKNOWN","OBJECT_ID":"","EPOCH":"2026-03-08T22:23:12.915168","MEAN_MOTION":12.381834,"ECCENTRICITY":0.0362475,"INCLINATION":101.8517,"RA_OF_ASC_NODE":66.1814,"ARG_OF_PERICENTER":347.9096,"MEAN_ANOMALY":11.3443,"EPHEMERIS_TYPE":0,"CLASSIFICATION_TYPE":"U","NORAD_CAT_ID":81614,"ELEMENT_SET_NO":999,"REV_AT_EPOCH":54864,"BSTAR":0.04486,"MEAN_MOTION_DOT":7.299e-5,"MEAN_MOTION_DDOT":0},{"OBJECT_NAME":"UNKNOWN","OBJECT_ID":"","EPOCH":"2026-03-08T09:50:23.720064","MEAN_MOTION":13.34468322,"ECCENTRICITY":0.0766752,"INCLINATION":65.8266,"RA_OF_ASC_NODE":222.4436,"ARG_OF_PERICENTER":96.485,"MEAN_ANOMALY":272.3996,"EPHEMERIS_TYPE":0,"CLASSIFICATION_TYPE":"U","NORAD_CAT_ID":81615,"ELEMENT_SET_NO":999,"REV_AT_EPOCH":59429,"BSTAR":0.0014031,"MEAN_MOTION_DOT":3.878e-5,"MEAN_MOTION_DDOT":0},{"OBJECT_NAME":"UNKNOWN","OBJECT_ID":"","EPOCH":"2026-03-08T22:41:06.430848","MEAN_MOTION":12.57604956,"ECCENTRICITY":0.0031777,"INCLINATION":101.2679,"RA_OF_ASC_NODE":243.6637,"ARG_OF_PERICENTER":73.2858,"MEAN_ANOMALY":287.1703,"EPHEMERIS_TYPE":0,"CLASSIFICATION_TYPE":"U","NORAD_CAT_ID":81617,"ELEMENT_SET_NO":999,"REV_AT_EPOCH":56394,"BSTAR":0.0026055,"MEAN_MOTION_DOT":3.96e-6,"MEAN_MOTION_DDOT":0},{"OBJECT_NAME":"UNKNOWN","OBJECT_ID":"","EPOCH":"2026-02-26T01:53:09.671424","MEAN_MOTION":14.72174479,"ECCENTRICITY":0.0063505,"INCLINATION":66.977,"RA_OF_ASC_NODE":318.5702,"ARG_OF_PERICENTER":176.9023,"MEAN_ANOMALY":183.2505,"EPHEMERIS_TYPE":0,"CLASSIFICATION_TYPE":"U","NORAD_CAT_ID":81624,"ELEMENT_SET_NO":999,"REV_AT_EPOCH":65079,"BSTAR":0.00072056,"MEAN_MOTION_DOT":4.588e-5,"MEAN_MOTION_DDOT":0},{"OBJECT_NAME":"UNKNOWN","OBJECT_ID":"","EPOCH":"2026-03-08T16:29:51.877536","MEAN_MOTION":12.57302115,"ECCENTRICITY":0.0979272,"INCLINATION":65.8265,"RA_OF_ASC_NODE":316.2257,"ARG_OF_PERICENTER":42.551,"MEAN_ANOMALY":324.7295,"EPHEMERIS_TYPE":0,"CLASSIFICATION_TYPE":"U","NORAD_CAT_ID":81640,"ELEMENT_SET_NO":999,"REV_AT_EPOCH":52088,"BSTAR":0.00064801,"MEAN_MOTION_DOT":6.52e-6,"MEAN_MOTION_DDOT":0},{"OBJECT_NAME":"UNKNOWN","OBJECT_ID":"","EPOCH":"2026-03-07T05:32:13.508160","MEAN_MOTION":13.44500123,"ECCENTRICITY":0.0363261,"INCLINATION":102.144,"RA_OF_ASC_NODE":337.2481,"ARG_OF_PERICENTER":170.7197,"MEAN_ANOMALY":343.1032,"EPHEMERIS_TYPE":0,"CLASSIFICATION_TYPE":"U","NORAD_CAT_ID":81652,"ELEMENT_SET_NO":999,"REV_AT_EPOCH":59000,"BSTAR":0.00078988,"MEAN_MOTION_DOT":6.25e-6,"MEAN_MOTION_DDOT":0},{"OBJECT_NAME":"UNKNOWN","OBJECT_ID":"","EPOCH":"2026-03-05T21:31:22.401120","MEAN_MOTION":14.48516277,"ECCENTRICITY":0.0014982,"INCLINATION":74.0395,"RA_OF_ASC_NODE":240.8812,"ARG_OF_PERICENTER":155.1547,"MEAN_ANOMALY":205.0337,"EPHEMERIS_TYPE":0,"CLASSIFICATION_TYPE":"U","NORAD_CAT_ID":81667,"ELEMENT_SET_NO":999,"REV_AT_EPOCH":46868,"BSTAR":0.0010427,"MEAN_MOTION_DOT":3.895e-5,"MEAN_MOTION_DDOT":0},{"OBJECT_NAME":"UNKNOWN","OBJECT_ID":"","EPOCH":"2026-02-26T23:11:17.329056","MEAN_MOTION":14.10128568,"ECCENTRICITY":0.002495,"INCLINATION":66.8236,"RA_OF_ASC_NODE":172.2986,"ARG_OF_PERICENTER":182.2064,"MEAN_ANOMALY":291.0582,"EPHEMERIS_TYPE":0,"CLASSIFICATION_TYPE":"U","NORAD_CAT_ID":81674,"ELEMENT_SET_NO":999,"REV_AT_EPOCH":62446,"BSTAR":0.00061639,"MEAN_MOTION_DOT":1.014e-5,"MEAN_MOTION_DDOT":0},{"OBJECT_NAME":"UNKNOWN","OBJECT_ID":"","EPOCH":"2026-03-08T08:13:28.320960","MEAN_MOTION":14.58058438,"ECCENTRICITY":0.0022953,"INCLINATION":81.2163,"RA_OF_ASC_NODE":205.0474,"ARG_OF_PERICENTER":37.0144,"MEAN_ANOMALY":323.2631,"EPHEMERIS_TYPE":0,"CLASSIFICATION_TYPE":"U","NORAD_CAT_ID":81683,"ELEMENT_SET_NO":999,"REV_AT_EPOCH":64833,"BSTAR":0.0014861,"MEAN_MOTION_DOT":6.876e-5,"MEAN_MOTION_DDOT":0},{"OBJECT_NAME":"UNKNOWN","OBJECT_ID":"","EPOCH":"2026-03-02T02:00:56.049984","MEAN_MOTION":14.4079762,"ECCENTRICITY":0.0002967,"INCLINATION":70.9991,"RA_OF_ASC_NODE":213.7849,"ARG_OF_PERICENTER":99.6396,"MEAN_ANOMALY":260.5075,"EPHEMERIS_TYPE":0,"CLASSIFICATION_TYPE":"U","NORAD_CAT_ID":81745,"ELEMENT_SET_NO":999,"REV_AT_EPOCH":64117,"BSTAR":0.0010839,"MEAN_MOTION_DOT":3.423e-5,"MEAN_MOTION_DDOT":0},{"OBJECT_NAME":"UNKNOWN","OBJECT_ID":"","EPOCH":"2026-03-08T22:38:29.688288","MEAN_MOTION":14.42229886,"ECCENTRICITY":0.0012873,"INCLINATION":82.9198,"RA_OF_ASC_NODE":152.7774,"ARG_OF_PERICENTER":339.4719,"MEAN_ANOMALY":20.5956,"EPHEMERIS_TYPE":0,"CLASSIFICATION_TYPE":"U","NORAD_CAT_ID":81775,"ELEMENT_SET_NO":999,"REV_AT_EPOCH":63769,"BSTAR":0.0024458,"MEAN_MOTION_DOT":8.087e-5,"MEAN_MOTION_DDOT":0},{"OBJECT_NAME":"UNKNOWN","OBJECT_ID":"","EPOCH":"2026-03-09T09:26:22.226784","MEAN_MOTION":9.33712526,"ECCENTRICITY":0.1445804,"INCLINATION":54.5061,"RA_OF_ASC_NODE":80.1802,"ARG_OF_PERICENTER":129.2802,"MEAN_ANOMALY":244.5392,"EPHEMERIS_TYPE":0,"CLASSIFICATION_TYPE":"U","NORAD_CAT_ID":81779,"ELEMENT_SET_NO":999,"REV_AT_EPOCH":48841,"BSTAR":-0.11528,"MEAN_MOTION_DOT":-1.75e-5,"MEAN_MOTION_DDOT":0},{"OBJECT_NAME":"UNKNOWN","OBJECT_ID":"","EPOCH":"2026-03-07T20:34:11.411328","MEAN_MOTION":13.11333445,"ECCENTRICITY":0.0894896,"INCLINATION":65.8286,"RA_OF_ASC_NODE":264.5373,"ARG_OF_PERICENTER":244.8718,"MEAN_ANOMALY":105.693,"EPHEMERIS_TYPE":0,"CLASSIFICATION_TYPE":"U","NORAD_CAT_ID":81792,"ELEMENT_SET_NO":999,"REV_AT_EPOCH":9119,"BSTAR":0.00068623,"MEAN_MOTION_DOT":1.902e-5,"MEAN_MOTION_DDOT":0},{"OBJECT_NAME":"UNKNOWN","OBJECT_ID":"","EPOCH":"2026-03-08T17:34:25.559328","MEAN_MOTION":12.38212489,"ECCENTRICITY":0.0286811,"INCLINATION":103.8042,"RA_OF_ASC_NODE":355.4456,"ARG_OF_PERICENTER":82.6752,"MEAN_ANOMALY":280.6803,"EPHEMERIS_TYPE":0,"CLASSIFICATION_TYPE":"U","NORAD_CAT_ID":81812,"ELEMENT_SET_NO":999,"REV_AT_EPOCH":55120,"BSTAR":0.056648,"MEAN_MOTION_DOT":8.473e-5,"MEAN_MOTION_DDOT":0},{"OBJECT_NAME":"UNKNOWN","OBJECT_ID":"","EPOCH":"2026-03-09T00:47:05.857152","MEAN_MOTION":13.89754524,"ECCENTRICITY":0.0173088,"INCLINATION":66.2369,"RA_OF_ASC_NODE":80.9381,"ARG_OF_PERICENTER":199.2654,"MEAN_ANOMALY":160.1824,"EPHEMERIS_TYPE":0,"CLASSIFICATION_TYPE":"U","NORAD_CAT_ID":81816,"ELEMENT_SET_NO":999,"REV_AT_EPOCH":62133,"BSTAR":0.00074665,"MEAN_MOTION_DOT":9.54e-6,"MEAN_MOTION_DDOT":0}]
