UNKNOWN                 
1 81599U          26065.54603071  .00000030  00000+0  16183-3 0  9991
2 81599  67.2921  99.6646 0246746  22.3697 129.5716 13.31539553596233
UNKNOWN                 
1 81605U          26065.13508409 -.00001613  00000+0 -61990-2 0  9998
2 81605  56.4354 337.3034 0149171 254.5569 103.8838 12.81426946196898
UNKNOWN                 
1 81614U          26067.93278837  .00007299  00000+0  44860-1 0  9997
2 81614 101.8517  66.1814 0362475 347.9096  11.3443 12.38183400548649
UNKNOWN                 
1 81615U          26067.40999676  .00003878  00000+0  14031-2 0  9998
2 81615  65.8266 222.4436 0766752  96.4850 272.3996 13.34468322594297
UNKNOWN                 
1 81617U          26067.94521332  .00000396  00000+0  26055-2 0  9990
2 81617 101.2679 243.6637 0031777  73.2858 287.1703 12.57604956563940
UNKNOWN                 
1 81624U          26057.07858416  .00004588  00000+0  72056-3 0  9997
2 81624  66.9770 318.5702 0063505 176.9023 183.2505 14.72174479650798
UNKNOWN                 
1 81640U          26067.68740599  .00000652  00000+0  64801-3 0  9992
2 81640  65.8265 316.2257 0979272  42.5510 324.7295 12.57302115520884
UNKNOWN                 
1 81652U          26066.23071190  .00000625  00000+0  78988-3 0  9990
2 81652 102.1440 337.2481 0363261 170.7197 343.1032 13.44500123590000
UNKNOWN                 
1 81667U          26064.89678705  .00003895  00000+0  10427-2 0  9996
2 81667  74.0395 240.8812 0014982 155.1547 205.0337 14.48516277468682
UNKNOWN                 
1 81674U          26057.96617279  .00001014  00000+0  61639-3 0  9996
2 81674  66.8236 172.2986 0024950 182.2064 291.0582 14.10128568624462
UNKNOWN                 
1 81683U          26067.34268890  .00006876  00000+0  14861-2 0  9995
2 81683  81.2163 205.0474 0022953  37.0144 323.2631 14.58058438648331
UNKNOWN                 
1 81745U          26061.08398206  .00003423  00000+0  10839-2 0  9990
2 81745  70.9991 213.7849 0002967  99.6396 260.5075 14.40797620641176
UNKNOWN                 
1 81775U          26067.94339917  .00008087  00000+0  24458-2 0  9991
2 81775  82.9198 152.7774 0012873 339.4719  20.5956 14.42229886637691
UNKNOWN                 
1 81779U          26068.39331281 -.00001750  00000+0 -11528+0 0  9994
2 81779  54.5061  80.1802 1445804 129.2802 244.5392  9.33712526488416
UNKNOWN                 
1 81792U          26066.85707652  .00001902  00000+0  68623-3 0  9996
2 81792  65.8286 264.5373 0894896 244.8718 105.6930 13.11333445 91194
UNKNOWN                 
1 81812U          26067.73224027  .00008473  00000+0  56648-1 0  9999
2 81812 103.8042 355.4456 0286811  82.6752 280.6803 12.38212489551208
UNKNOWN                 
1 81816U          26068.03270668  .00000954  00000+0  74665-3 0  9996
2 81816  66.2369  80.9381 0173088 199.2654 160.1824 13.89754524621335
